[{"OBJECT_NAME":"ONEWEB-0420","OBJECT_ID":"2021-132AC","EPOCH":"2025-09-22T06:03:04.287744","MEAN_MOTION":13.18684228,"ECCENTRICITY":0.00013656,"INCLINATION":87.9206,"RA_OF_ASC_NODE":28.6656,"ARG_OF_PERICENTER":103.5057,"MEAN_ANOMALY":256.6228,"EPHEMERIS_TYPE":0,"CLASSIFICATION_TYPE":"U","NORAD_CAT_ID":50495,"ELEMENT_SET_NO":999,"REV_AT_EPOCH":18626,"BSTAR":0.00021763913,"MEAN_MOTION_DOT":9.9e-7,"MEAN_MOTION_DDOT":0},{"OBJECT_NAME":"ONEWEB-0421","OBJECT_ID":"2021-132AD","EPOCH":"2025-09-22T05:53:35.143296","MEAN_MOTION":13.18685659,"ECCENTRICITY":0.00016185,"INCLINATION":87.9207,"RA_OF_ASC_NODE":28.6606,"ARG_OF_PERICENTER":88.6412,"MEAN_ANOMALY":271.4906,"EPHEMERIS_TYPE":0,"CLASSIFICATION_TYPE":"U","NORAD_CAT_ID":50496,"ELEMENT_SET_NO":999,"REV_AT_EPOCH":18630,"BSTAR":9.9921618e-5,"MEAN_MOTION_DOT":5.2e-7,"MEAN_MOTION_DDOT":0},{"OBJECT_NAME":"ONEWEB-0424","OBJECT_ID":"2021-132AE","EPOCH":"2025-09-22T06:45:50.255424","MEAN_MOTION":13.18686412,"ECCENTRICITY":0.00020128,"INCLINATION":87.9206,"RA_OF_ASC_NODE":28.6482,"ARG_OF_PERICENTER":109.2215,"MEAN_ANOMALY":250.9136,"EPHEMERIS_TYPE":0,"CLASSIFICATION_TYPE":"U","NORAD_CAT_ID":50497,"ELEMENT_SET_NO":999,"REV_AT_EPOCH":18633,"BSTAR":0.00014443385,"MEAN_MOTION_DOT":7.0e-7,"MEAN_MOTION_DDOT":0},{"OBJECT_NAME":"ONEWEB-0426","OBJECT_ID":"2021-132AF","EPOCH":"2025-09-22T02:10:18.469056","MEAN_MOTION":13.18684099,"ECCENTRICITY":0.00020863,"INCLINATION":87.9206,"RA_OF_ASC_NODE":28.6782,"ARG_OF_PERICENTER":80.4702,"MEAN_ANOMALY":279.6666,"EPHEMERIS_TYPE":0,"CLASSIFICATION_TYPE":"U","NORAD_CAT_ID":50498,"ELEMENT_SET_NO":999,"REV_AT_EPOCH":18625,"BSTAR":0.00011981941,"MEAN_MOTION_DOT":6.0e-7,"MEAN_MOTION_DDOT":0},{"OBJECT_NAME":"ONEWEB-0427","OBJECT_ID":"2021-132AG","EPOCH":"2025-09-22T06:43:27.348960","MEAN_MOTION":13.18686854,"ECCENTRICITY":0.00019436,"INCLINATION":87.9202,"RA_OF_ASC_NODE":28.6298,"ARG_OF_PERICENTER":98.2752,"MEAN_ANOMALY":261.8601,"EPHEMERIS_TYPE":0,"CLASSIFICATION_TYPE":"U","NORAD_CAT_ID":50499,"ELEMENT_SET_NO":999,"REV_AT_EPOCH":18630,"BSTAR":5.7957739e-5,"MEAN_MOTION_DOT":3.6e-7,"MEAN_MOTION_DDOT":0},{"OBJECT_NAME":"ONEWEB-0429","OBJECT_ID":"2021-132AH","EPOCH":"2025-09-22T06:24:26.739360","MEAN_MOTION":13.18684289,"ECCENTRICITY":0.00016063,"INCLINATION":87.9204,"RA_OF_ASC_NODE":28.6627,"ARG_OF_PERICENTER":101.5039,"MEAN_ANOMALY":258.6273,"EPHEMERIS_TYPE":0,"CLASSIFICATION_TYPE":"U","NORAD_CAT_ID":50500,"ELEMENT_SET_NO":999,"REV_AT_EPOCH":18627,"BSTAR":-1.1435492e-5,"MEAN_MOTION_DOT":8.0e-8,"MEAN_MOTION_DDOT":0},{"OBJECT_NAME":"ONEWEB-0430","OBJECT_ID":"2021-132AJ","EPOCH":"2025-09-21T21:01:30.768384","MEAN_MOTION":13.18684142,"ECCENTRICITY":0.00017185,"INCLINATION":87.9206,"RA_OF_ASC_NODE":28.7349,"ARG_OF_PERICENTER":108.2254,"MEAN_ANOMALY":251.9065,"EPHEMERIS_TYPE":0,"CLASSIFICATION_TYPE":"U","NORAD_CAT_ID":50501,"ELEMENT_SET_NO":999,"REV_AT_EPOCH":18626,"BSTAR":1.60836e-5,"MEAN_MOTION_DOT":1.9e-7,"MEAN_MOTION_DDOT":0},{"OBJECT_NAME":"ONEWEB-0432","OBJECT_ID":"2021-132AK","EPOCH":"2025-09-22T06:53:07.559520","MEAN_MOTION":13.18691372,"ECCENTRICITY":0.00026503,"INCLINATION":87.9199,"RA_OF_ASC_NODE":28.6303,"ARG_OF_PERICENTER":105.1063,"MEAN_ANOMALY":255.0363,"EPHEMERIS_TYPE":0,"CLASSIFICATION_TYPE":"U","NORAD_CAT_ID":50502,"ELEMENT_SET_NO":999,"REV_AT_EPOCH":18627,"BSTAR":0.00023951926,"MEAN_MOTION_DOT":1.07e-6,"MEAN_MOTION_DDOT":0},{"OBJECT_NAME":"ONEWEB-0440","OBJECT_ID":"2021-132AL","EPOCH":"2025-09-22T06:36:19.850400","MEAN_MOTION":13.18685827,"ECCENTRICITY":0.00013961,"INCLINATION":87.9209,"RA_OF_ASC_NODE":28.6452,"ARG_OF_PERICENTER":88.8633,"MEAN_ANOMALY":271.2659,"EPHEMERIS_TYPE":0,"CLASSIFICATION_TYPE":"U","NORAD_CAT_ID":50503,"ELEMENT_SET_NO":999,"REV_AT_EPOCH":18626,"BSTAR":1.6696115e-5,"MEAN_MOTION_DOT":1.9e-7,"MEAN_MOTION_DDOT":0},{"OBJECT_NAME":"ONEWEB-0450","OBJECT_ID":"2021-132AM","EPOCH":"2025-09-22T06:27:01.512864","MEAN_MOTION":13.18688131,"ECCENTRICITY":0.00015232,"INCLINATION":87.9205,"RA_OF_ASC_NODE":28.6713,"ARG_OF_PERICENTER":107.3329,"MEAN_ANOMALY":252.797,"EPHEMERIS_TYPE":0,"CLASSIFICATION_TYPE":"U","NORAD_CAT_ID":50504,"ELEMENT_SET_NO":999,"REV_AT_EPOCH":18629,"BSTAR":7.6198459e-5,"MEAN_MOTION_DOT":4.3e-7,"MEAN_MOTION_DDOT":0},{"OBJECT_NAME":"ONEWEB-0410","OBJECT_ID":"2022-012A","EPOCH":"2025-09-22T03:54:09.461664","MEAN_MOTION":13.17647784,"ECCENTRICITY":0.00030347,"INCLINATION":87.9065,"RA_OF_ASC_NODE":59.148,"ARG_OF_PERICENTER":78.7463,"MEAN_ANOMALY":281.401,"EPHEMERIS_TYPE":0,"CLASSIFICATION_TYPE":"U","NORAD_CAT_ID":51622,"ELEMENT_SET_NO":999,"REV_AT_EPOCH":17840,"BSTAR":7.22785e-7,"MEAN_MOTION_DOT":1.3e-7,"MEAN_MOTION_DDOT":0},{"OBJECT_NAME":"ONEWEB-0411","OBJECT_ID":"2022-012B","EPOCH":"2025-09-22T01:47:19.052448","MEAN_MOTION":13.10370578,"ECCENTRICITY":0.00016527,"INCLINATION":87.8736,"RA_OF_ASC_NODE":89.7309,"ARG_OF_PERICENTER":108.6045,"MEAN_ANOMALY":251.5262,"EPHEMERIS_TYPE":0,"CLASSIFICATION_TYPE":"U","NORAD_CAT_ID":51623,"ELEMENT_SET_NO":999,"REV_AT_EPOCH":17417,"BSTAR":-0.0015585523,"MEAN_MOTION_DOT":-5.31e-6,"MEAN_MOTION_DDOT":0},{"OBJECT_NAME":"ONEWEB-0415","OBJECT_ID":"2022-012C","EPOCH":"2025-09-22T01:42:32.163840","MEAN_MOTION":13.1036927,"ECCENTRICITY":0.00016668,"INCLINATION":87.8733,"RA_OF_ASC_NODE":89.7339,"ARG_OF_PERICENTER":98.9679,"MEAN_ANOMALY":261.1638,"EPHEMERIS_TYPE":0,"CLASSIFICATION_TYPE":"U","NORAD_CAT_ID":51624,"ELEMENT_SET_NO":999,"REV_AT_EPOCH":17417,"BSTAR":-0.0011762618,"MEAN_MOTION_DOT":-3.98e-6,"MEAN_MOTION_DDOT":0},{"OBJECT_NAME":"ONEWEB-0416","OBJECT_ID":"2022-012D","EPOCH":"2025-09-22T05:39:10.258560","MEAN_MOTION":13.10372557,"ECCENTRICITY":0.00016942,"INCLINATION":87.8738,"RA_OF_ASC_NODE":89.7212,"ARG_OF_PERICENTER":89.4651,"MEAN_ANOMALY":270.6671,"EPHEMERIS_TYPE":0,"CLASSIFICATION_TYPE":"U","NORAD_CAT_ID":51625,"ELEMENT_SET_NO":999,"REV_AT_EPOCH":17423,"BSTAR":-0.001663449,"MEAN_MOTION_DOT":-5.68e-6,"MEAN_MOTION_DDOT":0},{"OBJECT_NAME":"ONEWEB-0422","OBJECT_ID":"2022-012E","EPOCH":"2025-09-22T04:08:43.479744","MEAN_MOTION":13.17648041,"ECCENTRICITY":9.571e-5,"INCLINATION":87.9062,"RA_OF_ASC_NODE":59.1514,"ARG_OF_PERICENTER":92.5286,"MEAN_ANOMALY":267.5955,"EPHEMERIS_TYPE":0,"CLASSIFICATION_TYPE":"U","NORAD_CAT_ID":51626,"ELEMENT_SET_NO":999,"REV_AT_EPOCH":17851,"BSTAR":8.4171025e-5,"MEAN_MOTION_DOT":4.6e-7,"MEAN_MOTION_DDOT":0},{"OBJECT_NAME":"ONEWEB-0423","OBJECT_ID":"2022-012F","EPOCH":"2025-09-22T03:59:00.024000","MEAN_MOTION":13.17646889,"ECCENTRICITY":0.00016273,"INCLINATION":87.9064,"RA_OF_ASC_NODE":59.1618,"ARG_OF_PERICENTER":90.8492,"MEAN_ANOMALY":269.2826,"EPHEMERIS_TYPE":0,"CLASSIFICATION_TYPE":"U","NORAD_CAT_ID":51627,"ELEMENT_SET_NO":999,"REV_AT_EPOCH":17840,"BSTAR":0.00017520489,"MEAN_MOTION_DOT":8.1e-7,"MEAN_MOTION_DDOT":0},{"OBJECT_NAME":"ONEWEB-0425","OBJECT_ID":"2022-012G","EPOCH":"2025-09-22T05:53:31.517952","MEAN_MOTION":13.10374304,"ECCENTRICITY":0.00018988,"INCLINATION":87.8741,"RA_OF_ASC_NODE":89.6885,"ARG_OF_PERICENTER":79.7528,"MEAN_ANOMALY":280.3813,"EPHEMERIS_TYPE":0,"CLASSIFICATION_TYPE":"U","NORAD_CAT_ID":51628,"ELEMENT_SET_NO":999,"REV_AT_EPOCH":17423,"BSTAR":-0.0013015028,"MEAN_MOTION_DOT":-4.42e-6,"MEAN_MOTION_DDOT":0}]
