ONEWEB-0420             
1 50495U 21132AC  25265.25213296  .00000099  00000+0  21764-3 0  9992
2 50495  87.9206  28.6656 0001365 103.5057 256.6228 13.18684228186263
ONEWEB-0421             
1 50496U 21132AD  25265.24554564  .00000052  00000+0  99922-4 0  9999
2 50496  87.9207  28.6606 0001618  88.6412 271.4906 13.18685659186301
ONEWEB-0424             
1 50497U 21132AE  25265.28183166  .00000070  00000+0  14443-3 0  9994
2 50497  87.9206  28.6482 0002012 109.2215 250.9136 13.18686412186331
ONEWEB-0426             
1 50498U 21132AF  25265.09049154  .00000060  00000+0  11982-3 0  9996
2 50498  87.9206  28.6782 0002086  80.4702 279.6666 13.18684099186253
ONEWEB-0427             
1 50499U 21132AG  25265.28017765  .00000036  00000+0  57958-4 0  9998
2 50499  87.9202  28.6298 0001943  98.2752 261.8601 13.18686854186304
ONEWEB-0429             
1 50500U 21132AH  25265.26697615  .00000008  00000+0 -11435-4 0  9997
2 50500  87.9204  28.6627 0001606 101.5039 258.6273 13.18684289186272
ONEWEB-0430             
1 50501U 21132AJ  25264.87605056  .00000019  00000+0  16084-4 0  9998
2 50501  87.9206  28.7349 0001718 108.2254 251.9065 13.18684142186266
ONEWEB-0432             
1 50502U 21132AK  25265.28689305  .00000107  00000+0  23952-3 0  9993
2 50502  87.9199  28.6303 0002650 105.1063 255.0363 13.18691372186277
ONEWEB-0440             
1 50503U 21132AL  25265.27522975  .00000019  00000+0  16696-4 0  9992
2 50503  87.9209  28.6452 0001396  88.8633 271.2659 13.18685827186266
ONEWEB-0450             
1 50504U 21132AM  25265.26876751  .00000043  00000+0  76198-4 0  9996
2 50504  87.9205  28.6713 0001523 107.3329 252.7970 13.18688131186298
ONEWEB-0410             
1 51622U 22012A   25265.16260951  .00000013  00000+0  72278-6 0  9998
2 51622  87.9065  59.1480 0003034  78.7463 281.4010 13.17647784178409
ONEWEB-0411             
1 51623U 22012B   25265.07452607 -.00000531  00000+0 -15586-2 0  9992
2 51623  87.8736  89.7309 0001652 108.6045 251.5262 13.10370578174170
ONEWEB-0415             
1 51624U 22012C   25265.07120560 -.00000398  00000+0 -11763-2 0  9997
2 51624  87.8733  89.7339 0001666  98.9679 261.1638 13.10369270174171
ONEWEB-0416             
1 51625U 22012D   25265.23553540 -.00000568  00000+0 -16634-2 0  9995
2 51625  87.8738  89.7212 0001694  89.4651 270.6671 13.10372557174234
ONEWEB-0422             
1 51626U 22012E   25265.17272546  .00000046  00000+0  84171-4 0  9995
2 51626  87.9062  59.1514 0000957  92.5286 267.5955 13.17648041178518
ONEWEB-0423             
1 51627U 22012F   25265.16597250  .00000081  00000+0  17520-3 0  9999
2 51627  87.9064  59.1618 0001627  90.8492 269.2826 13.17646889178403
ONEWEB-0425             
1 51628U 22012G   25265.24550368 -.00000442  00000+0 -13015-2 0  9995
2 51628  87.8741  89.6885 0001898  79.7528 280.3813 13.10374304174235
